SEEDS II (CO-66)        
1 32791U 08021J   26068.92109284  .00023758  00000+0  84213-3 0  9995
2 32791  97.7519  62.3611 0001448 359.2618   0.8619 15.29097235972108
STARLINK-31756          
1 61517U 24183J   26068.47295911 -.00000007  00000+0  11885-4 0  9992
2 61517  53.1601 143.7994 0001087 100.4447 259.6676 15.30187948 79611
